NORAD_CAT_ID,OBJECT_NAME,OBJECT_TYPE,EPOCH,MEAN_MOTION,ECCENTRICITY,INCLINATION,RA_OF_ASC_NODE,ARG_OF_PERICENTER,MEAN_ANOMALY,BSTAR,MEAN_MOTION_DOT,MEAN_MOTION_DDOT,TLE_LINE0,TLE_LINE1,TLE_LINE2,SEMIMAJOR_AXIS,PERIOD,APOGEE,PERIGEE,DECAYED
56774.0,STARLINK-6190,PAYLOAD,2023-09-03 12:12:20,14.98327517,0.0002369,70.0026,159.4719,277.8073,82.2817,-1.3016e-05,-2.48e-06,0.0,0 STARLINK-6190,1 56774U 23078H   23246.50857184 -.00000248  00000-0 -13016-4 0  9995,2 56774  70.0026 159.4719 0002369 277.8073  82.2817 14.98327517 14657,6950.201,96.107,573.712,570.419,0.0
56774.0,STARLINK-6190,PAYLOAD,2023-09-04 04:13:41,14.98323582,0.000277,70.0013,157.7879,270.793,89.2912,-2.4567e-05,-3.86e-06,0.0,0 STARLINK-6190,1 56774U 23078H   23247.17617422 -.00000386  00000-0 -24567-4 0  9994,2 56774  70.0013 157.7879 0002770 270.7930  89.2912 14.98323582 14753,6950.213,96.107,574.003,570.153,0.0
56774.0,STARLINK-6190,PAYLOAD,2023-09-05 01:03:25,14.98353702,0.0002273,70.0012,155.6001,262.8582,97.2318,-0.00035334,-4.309e-05,0.0,0 STARLINK-6190,1 56774U 23078H   23248.04404531 -.00004309  00000-0 -35334-3 0  9998,2 56774  70.0012 155.6001 0002273 262.8582  97.2318 14.98353702 15149,6950.12,96.105,573.564,570.405,0.0
56774.0,STARLINK-6190,PAYLOAD,2023-09-05 04:15:41,14.98328918,0.0002624,70.0012,155.2635,261.8973,98.1888,7.6221e-05,8.17e-06,0.0,0 STARLINK-6190,1 56774U 23078H   23248.17756927  .00000817  00000-0  76221-4 0  9990,2 56774  70.0012 155.2635 0002624 261.8973  98.1888 14.98328918 15166,6950.196,96.107,573.885,570.238,0.0
56774.0,STARLINK-6190,PAYLOAD,2023-09-06 23:31:19,14.98335239,0.0002938,70.001,150.7193,270.3122,89.77,7.0434e-06,-9e-08,0.0,0 STARLINK-6190,1 56774U 23078H   23249.98008485 -.00000009  00000-0  70434-5 0  9994,2 56774  70.0010 150.7193 0002938 270.3122  89.7700 14.98335239 15435,6950.177,96.107,574.084,570.0,0.0
56774.0,STARLINK-6190,PAYLOAD,2023-09-07 02:43:35,14.98333679,0.0003011,70.0006,150.3824,269.888,90.1934,-2.3246e-05,-3.7e-06,0.0,0 STARLINK-6190,1 56774U 23078H   23250.11360604 -.00000370  00000-0 -23246-4 0  9995,2 56774  70.0006 150.3824 0003011 269.8880  90.1934 14.98333679 15198,6950.182,96.107,574.139,569.954,0.0
56774.0,STARLINK-6190,PAYLOAD,2023-09-07 20:21:04,14.98329668,0.0003235,69.9999,148.5313,268.8972,91.1816,-3.4681e-05,-5.07e-06,0.0,0 STARLINK-6190,1 56774U 23078H   23250.84796749 -.00000507  00000-0 -34681-4 0  9995,2 56774  69.9999 148.5313 0003235 268.8972  91.1816 14.98329668 15303,6950.194,96.107,574.307,569.811,0.0
56774.0,STARLINK-6190,PAYLOAD,2023-09-08 12:22:25,14.9832522,0.0003111,69.9997,146.8475,268.8318,91.2484,-7.0649e-05,-9.36e-06,0.0,0 STARLINK-6190,1 56774U 23078H   23251.51557021 -.00000936  00000-0 -70649-4 0  9998,2 56774  69.9997 146.8475 0003111 268.8318  91.2484 14.98325220 15401,6950.208,96.107,574.235,569.91,0.0
56774.0,STARLINK-6190,PAYLOAD,2023-09-08 18:46:57,14.98327532,0.0003111,69.9997,146.1742,269.0216,91.0586,-4.1503e-05,-5.88e-06,0.0,0 STARLINK-6190,1 56774U 23078H   23251.78260840 -.00000588  00000-0 -41503-4 0  9997,2 56774  69.9997 146.1742 0003111 269.0216  91.0586 14.98327532 15703,6950.201,96.107,574.228,569.903,0.0
56774.0,STARLINK-6190,PAYLOAD,2023-09-09 12:24:26,14.9832539,0.0003112,69.9996,144.3226,268.5923,91.4879,-2.8854e-05,-4.37e-06,0.0,0 STARLINK-6190,1 56774U 23078H   23252.51696869 -.00000437  00000-0 -28854-4 0  9990,2 56774  69.9996 144.3226 0003112 268.5923  91.4879 14.98325390 15551,6950.207,96.107,574.235,569.909,0.0
56774.0,STARLINK-6190,PAYLOAD,2023-09-09 18:48:58,14.98328385,0.0003064,69.9996,143.6494,268.1253,91.9555,1.2114e-05,5.2e-07,0.0,0 STARLINK-6190,1 56774U 23078H   23252.78400631  .00000052  00000-0  12114-4 0  9992,2 56774  69.9996 143.6494 0003064 268.1253  91.9555 14.98328385 15854,6950.198,96.107,574.192,569.933,0.0
56774.0,STARLINK-6190,PAYLOAD,2023-09-10 02:49:38,14.9833335,0.0003098,69.9995,142.8079,269.1587,90.9217,7.9759e-05,8.59e-06,0.0,0 STARLINK-6190,1 56774U 23078H   23253.11780142  .00000859  00000-0  79759-4 0  9991,2 56774  69.9995 142.8079 0003098 269.1587  90.9217 14.98333350 15909,6950.183,96.107,574.201,569.894,0.0
56774.0,STARLINK-6190,PAYLOAD,2023-09-10 10:50:18,14.98330817,0.0003094,69.9995,141.9664,269.1952,90.8853,-7.8983e-06,-1.87e-06,0.0,0 STARLINK-6190,1 56774U 23078H   23253.45160470 -.00000187  00000-0 -78983-5 0  9999,2 56774  69.9995 141.9664 0003094 269.1952  90.8853 14.98330817 15697,6950.19,96.107,574.206,569.905,0.0
56774.0,STARLINK-6190,PAYLOAD,2023-09-10 18:50:59,14.98321415,0.0003095,69.9994,141.1247,269.854,90.2265,1.4065e-05,7.5e-07,0.0,0 STARLINK-6190,1 56774U 23078H   23253.78541077  .00000075  00000-0  14065-4 0  9995,2 56774  69.9994 141.1247 0003095 269.8540  90.2265 14.98321415 16007,6950.219,96.108,574.236,569.933,0.0
56774.0,STARLINK-6190,PAYLOAD,2023-09-11 02:51:39,14.98328394,0.0003078,69.9996,140.2832,270.1438,89.9368,3.6322e-05,3.4e-06,0.0,0 STARLINK-6190,1 56774U 23078H   23254.11920668  .00000340  00000-0  36322-4 0  9995,2 56774  69.9996 140.2832 0003078 270.1438  89.9368 14.98328394 16058,6950.198,96.107,574.202,569.924,0.0
56774.0,STARLINK-6190,PAYLOAD,2023-09-11 09:16:11,14.98332849,0.0003125,69.9996,139.6098,269.6577,90.4224,-3.145e-05,-4.68e-06,0.0,0 STARLINK-6190,1 56774U 23078H   23254.38624507 -.00000468  00000-0 -31450-4 0  9997,2 56774  69.9996 139.6098 0003125 269.6577  90.4224 14.98332849 15837,6950.184,96.107,574.221,569.877,0.0
56774.0,STARLINK-6190,PAYLOAD,2023-09-12 09:18:12,14.98334421,0.0003374,69.9997,137.085,268.7174,91.3598,6.9923e-05,7.41e-06,0.0,0 STARLINK-6190,1 56774U 23078H   23255.38763930  .00000741  00000-0  69923-4 0  9990,2 56774  69.9997 137.0850 0003374 268.7174  91.3598 14.98334421 16243,6950.179,96.107,574.389,569.699,0.0
56774.0,STARLINK-6190,PAYLOAD,2023-09-12 20:31:09,14.98316234,0.0003004,70.0002,135.9082,267.6993,92.3822,0.00026108,3.022e-05,0.0,0 STARLINK-6190,1 56774U 23078H   23255.85496721  .00003022  00000-0  26108-3 0  9995,2 56774  70.0002 135.9082 0003004 267.6993  92.3822 14.98316234 16056,6950.235,96.108,574.188,570.013,0.0
56774.0,STARLINK-6190,PAYLOAD,2023-09-13 01:19:32,14.98334474,0.0003156,69.9996,135.4012,269.345,90.7347,0.00011877,1.325e-05,0.0,0 STARLINK-6190,1 56774U 23078H   23256.05523783  .00001325  00000-0  11877-3 0  9998,2 56774  69.9996 135.4012 0003156 269.3450  90.7347 14.98334474 16081,6950.179,96.107,574.238,569.851,0.0
56774.0,STARLINK-6190,PAYLOAD,2023-09-13 17:20:53,14.98331478,0.0003081,70.0,133.7186,270.0404,90.0402,-2.5229e-05,-3.94e-06,0.0,0 STARLINK-6190,1 56774U 23078H   23256.72284241 -.00000394  00000-0 -25229-4 0  9999,2 56774  70.0000 133.7186 0003081 270.0404  90.0402 14.98331478 16444,6950.188,96.107,574.195,569.912,0.0
56774.0,STARLINK-6190,PAYLOAD,2023-09-13 22:09:17,14.98331007,0.0003191,69.9996,133.2127,269.6859,90.3935,-1.2188e-06,-1.08e-06,0.0,0 STARLINK-6190,1 56774U 23078H   23256.92312106 -.00000108  00000-0 -12188-5 0  9997,2 56774  69.9996 133.2127 0003191 269.6859  90.3935 14.98331007 16212,6950.19,96.107,574.273,569.837,0.0
56774.0,STARLINK-6190,PAYLOAD,2023-09-14 01:21:33,14.98335006,0.0003023,69.9999,132.8764,269.7706,90.3106,1.3923e-05,7.3e-07,0.0,0 STARLINK-6190,1 56774U 23078H   23257.05663843  .00000073  00000-0  13923-4 0  9995,2 56774  69.9999 132.8764 0003023 269.7706  90.3106 14.98335006 16238,6950.177,96.107,574.143,569.941,0.0
56774.0,STARLINK-6190,PAYLOAD,2023-09-14 17:22:54,14.98323091,0.0003364,70.0013,131.1946,259.4263,100.6518,2.9899e-06,-5.7e-07,0.0,0 STARLINK-6190,1 56774U 23078H   23257.72424545 -.00000057  00000-0  29899-5 0  9996,2 56774  70.0013 131.1946 0003364 259.4263 100.6518 14.98323091 16596,6950.214,96.107,574.417,569.741,0.0
56774.0,STARLINK-6190,PAYLOAD,2023-09-14 20:35:11,14.98321852,0.0003444,70.0013,130.8583,261.6304,98.4464,-1.3289e-05,-2.52e-06,0.0,0 STARLINK-6190,1 56774U 23078H   23257.85776725 -.00000252  00000-0 -13289-4 0  9993,2 56774  70.0013 130.8583 0003444 261.6304  98.4464 14.98321852 16350,6950.218,96.108,574.477,569.689,0.0
56774.0,STARLINK-6190,PAYLOAD,2023-09-15 01:23:35,14.98326663,0.0003208,70.0001,130.352,270.0058,90.0734,-9.162e-05,-1.186e-05,0.0,0 STARLINK-6190,1 56774U 23078H   23258.05804756 -.00001186  00000-0 -91620-4 0  9994,2 56774  70.0001 130.3520 0003208 270.0058  90.0734 14.98326663 16387,6950.203,96.107,574.298,569.839,0.0
56774.0,STARLINK-6190,PAYLOAD,2023-09-15 17:24:55,14.98330418,0.0003001,69.9998,128.6686,266.6377,93.4439,2.4841e-05,2.03e-06,0.0,0 STARLINK-6190,1 56774U 23078H   23258.72564265  .00000203  00000-0  24841-4 0  9994,2 56774  69.9998 128.6686 0003001 266.6377  93.4439 14.98330418 16740,6950.192,96.107,574.142,569.971,0.0
56774.0,STARLINK-6190,PAYLOAD,2023-09-16 01:25:35,14.98335465,0.0003163,69.9995,127.8265,268.3616,91.718,9.3759e-05,1.026e-05,0.0,0 STARLINK-6190,1 56774U 23078H   23259.05943734  .00001026  00000-0  93759-4 0  9991,2 56774  69.9995 127.8265 0003163 268.3616  91.7180 14.98335465 16791,6950.176,96.107,574.239,569.843,0.0
56774.0,STARLINK-6190,PAYLOAD,2023-09-16 17:26:56,14.98325366,0.0003209,69.9995,126.1434,269.3936,90.6855,5.5395e-05,5.68e-06,0.0,0 STARLINK-6190,1 56774U 23078H   23259.72704489  .00000568  00000-0  55395-4 0  9991,2 56774  69.9995 126.1434 0003209 269.3936  90.6855 14.98325366 16895,6950.207,96.107,574.303,569.842,0.0
56774.0,STARLINK-6190,PAYLOAD,2023-09-17 01:27:36,14.98327563,0.0003228,69.9994,125.3018,269.0948,90.9841,8.1035e-05,8.74e-06,0.0,0 STARLINK-6190,1 56774U 23078H   23260.06084337  .00000874  00000-0  81035-4 0  9993,2 56774  69.9994 125.3018 0003228 269.0948  90.9841 14.98327563 16680,6950.2,96.107,574.309,569.822,0.0
56774.0,STARLINK-6190,PAYLOAD,2023-09-17 17:28:57,14.9833458,0.000323,69.9992,123.6186,270.0423,90.0366,-9.749e-06,-2.09e-06,0.0,0 STARLINK-6190,1 56774U 23078H   23260.72844056 -.00000209  00000-0 -97490-5 0  9995,2 56774  69.9992 123.6186 0003230 270.0423  90.0366 14.98334580 17049,6950.179,96.107,574.289,569.799,0.0
